{"type": "FeatureCollection", "features": [ {"type": "Feature", "properties": {"norad_id": 35022, "name": "COSMOS 2251 DEB", "group": "cosmos-2251-debris", "lat": -37.50987591678486, "lon": 144.60444537817128, "alt_km": 684.4635200256753, "timestamp": "2025-12-17T23:38:07.249245+00:00", "meta": {"OBJECT_NAME": "COSMOS 2251 DEB", "OBJECT_ID": "1993-036AGK", "EPOCH": "2025-12-15T14:45:27.251136", "MEAN_MOTION": 14.60846809, "ECCENTRICITY": 0.00465822, "INCLINATION": 74.027, "RA_OF_ASC_NODE": 316.4327, "ARG_OF_PERICENTER": 155.4398, "MEAN_ANOMALY": 204.9001, "EPHEMERIS_TYPE": 0, "CLASSIFICATION_TYPE": "U", "NORAD_CAT_ID": 35022, "ELEMENT_SET_NO": 999, "REV_AT_EPOCH": 59185, "BSTAR": 0.00033959453, "MEAN_MOTION_DOT": 1.655e-05, "MEAN_MOTION_DDOT": 0}, "tle": {"line1": "1 35022U 93036AGK 25349.61489874  .00001655  00000+0  33959-3 0  9991", "line2": "2 35022  74.0270 316.4327 0046582 155.4398 204.9001 14.60846809591850"}}, "geometry": {"type": "Point", "coordinates": [144.60444537817128, -37.50987591678486]}}, {"type": "Feature", "properties": {"norad_id": 35023, "name": "COSMOS 2251 DEB", "group": "cosmos-2251-debris", "lat": -36.74014632548935, "lon": -170.33014656471556, "alt_km": 570.2704265616594, "timestamp": "2025-12-17T23:38:07.249255+00:00", "meta": {"OBJECT_NAME": "COSMOS 2251 DEB", "OBJECT_ID": "1993-036AGL", "EPOCH": "2025-12-17T14:18:36.669600", "MEAN_MOTION": 14.95247331, "ECCENTRICITY": 0.00337873, "INCLINATION": 74.0367, "RA_OF_ASC_NODE": 202.7911, "ARG_OF_PERICENTER": 279.8614, "MEAN_ANOMALY": 110.8658, "EPHEMERIS_TYPE": 0, "CLASSIFICATION_TYPE": "U", "NORAD_CAT_ID": 35023, "ELEMENT_SET_NO": 999, "REV_AT_EPOCH": 88352, "BSTAR": 0.0010652227, "MEAN_MOTION_DOT": 0.00011837, "MEAN_MOTION_DDOT": 0}, "tle": {"line1": "1 35023U 93036AGL 25351.59625775  .00011837  00000+0  10652-2 0  9991", "line2": "2 35023  74.0367 202.7911 0033787 279.8614 110.8658 14.95247331883523"}}, "geometry": {"type": "Point", "coordinates": [-170.33014656471556, -36.74014632548935]}}, {"type": "Feature", "properties": {"norad_id": 35025, "name": "COSMOS 2251 DEB", "group": "cosmos-2251-debris", "lat": -26.443384859505187, "lon": 44.41400937513148, "alt_km": 598.2712014232693, "timestamp": "2025-12-17T23:38:07.249265+00:00", "meta": {"OBJECT_NAME": "COSMOS 2251 DEB", "OBJECT_ID": "1993-036AGN", "EPOCH": "2025-12-17T10:42:58.177152", "MEAN_MOTION": 14.72731775, "ECCENTRICITY": 0.00853912, "INCLINATION": 73.9386, "RA_OF_ASC_NODE": 53.7061, "ARG_OF_PERICENTER": 325.5144, "MEAN_ANOMALY": 34.0503, "EPHEMERIS_TYPE": 0, "CLASSIFICATION_TYPE": "U", "NORAD_CAT_ID": 35025, "ELEMENT_SET_NO": 999, "REV_AT_EPOCH": 88712, "BSTAR": 0.00029622767, "MEAN_MOTION_DOT": 1.966e-05, "MEAN_MOTION_DDOT": 0}, "tle": {"line1": "1 35025U 93036AGN 25351.44650668  .00001966  00000+0  29623-3 0  9997", "line2": "2 35025  73.9386  53.7061 0085391 325.5144  34.0503 14.72731775887120"}}, "geometry": {"type": "Point", "coordinates": [44.41400937513148, -26.443384859505187]}}, {"type": "Feature", "properties": {"norad_id": 35026, "name": "COSMOS 2251 DEB", "group": "cosmos-2251-debris", "lat": -21.93627892995618, "lon": 135.51628889338824, "alt_km": 764.5894022920966, "timestamp": "2025-12-17T23:38:07.249275+00:00", "meta": {"OBJECT_NAME": "COSMOS 2251 DEB", "OBJECT_ID": "1993-036AGP", "EPOCH": "2025-12-16T16:08:09.566880", "MEAN_MOTION": 14.53625914, "ECCENTRICITY": 0.00823829, "INCLINATION": 74.0469, "RA_OF_ASC_NODE": 311.3777, "ARG_OF_PERICENTER": 63.7165, "MEAN_ANOMALY": 113.0174, "EPHEMERIS_TYPE": 0, "CLASSIFICATION_TYPE": "U", "NORAD_CAT_ID": 35026, "ELEMENT_SET_NO": 999, "REV_AT_EPOCH": 88200, "BSTAR": 6.960493e-05, "MEAN_MOTION_DOT": 2.74e-06, "MEAN_MOTION_DDOT": 0}, "tle": {"line1": "1 35026U 93036AGP 25350.67233295  .00000274  00000+0  69605-4 0  9991", "line2": "2 35026  74.0469 311.3777 0082382  63.7165 113.0174 14.53625914882003"}}, "geometry": {"type": "Point", "coordinates": [135.51628889338824, -21.93627892995618]}}, {"type": "Feature", "properties": {"norad_id": 35028, "name": "COSMOS 2251 DEB", "group": "cosmos-2251-debris", "lat": 9.487764541563857, "lon": -96.23027550851563, "alt_km": 651.7303786483089, "timestamp": "2025-12-17T23:38:07.249285+00:00", "meta": {"OBJECT_NAME": "COSMOS 2251 DEB", "OBJECT_ID": "1993-036AGR", "EPOCH": "2025-12-17T00:34:50.868768", "MEAN_MOTION": 14.56574497, "ECCENTRICITY": 0.00826528, "INCLINATION": 74.0386, "RA_OF_ASC_NODE": 262.8503, "ARG_OF_PERICENTER": 35.3632, "MEAN_ANOMALY": 339.9583, "EPHEMERIS_TYPE": 0, "CLASSIFICATION_TYPE": "U", "NORAD_CAT_ID": 35028, "ELEMENT_SET_NO": 999, "REV_AT_EPOCH": 88348, "BSTAR": 9.1156232e-05, "MEAN_MOTION_DOT": 3.94e-06, "MEAN_MOTION_DDOT": 0}, "tle": {"line1": "1 35028U 93036AGR 25351.02419987  .00000394  00000+0  91156-4 0  9996", "line2": "2 35028  74.0386 262.8503 0082652  35.3632 339.9583 14.56574497883482"}}, "geometry": {"type": "Point", "coordinates": [-96.23027550851563, 9.487764541563857]}}, {"type": "Feature", "properties": {"norad_id": 35031, "name": "COSMOS 2251 DEB", "group": "cosmos-2251-debris", "lat": -59.19452746415807, "lon": -139.0860466204342, "alt_km": 761.3033090592417, "timestamp": "2025-12-17T23:38:07.249295+00:00", "meta": {"OBJECT_NAME": "COSMOS 2251 DEB", "OBJECT_ID": "1993-036AGU", "EPOCH": "2025-12-17T00:33:28.119168", "MEAN_MOTION": 14.38298614, "ECCENTRICITY": 0.0019033, "INCLINATION": 74.0382, "RA_OF_ASC_NODE": 251.3713, "ARG_OF_PERICENTER": 343.9769, "MEAN_ANOMALY": 16.078, "EPHEMERIS_TYPE": 0, "CLASSIFICATION_TYPE": "U", "NORAD_CAT_ID": 35031, "ELEMENT_SET_NO": 999, "REV_AT_EPOCH": 65345, "BSTAR": 0.00015001846, "MEAN_MOTION_DOT": 4.31e-06, "MEAN_MOTION_DDOT": 0}, "tle": {"line1": "1 35031U 93036AGU 25351.02324212  .00000431  00000+0  15002-3 0  9993", "line2": "2 35031  74.0382 251.3713 0019033 343.9769  16.0780 14.38298614653458"}}, "geometry": {"type": "Point", "coordinates": [-139.0860466204342, -59.19452746415807]}}, {"type": "Feature", "properties": {"norad_id": 35032, "name": "COSMOS 2251 DEB", "group": "cosmos-2251-debris", "lat": -7.794557769094182, "lon": 179.44982610590506, "alt_km": 655.2935274314623, "timestamp": "2025-12-17T23:38:07.249305+00:00", "meta": {"OBJECT_NAME": "COSMOS 2251 DEB", "OBJECT_ID": "1993-036AGV", "EPOCH": "2025-12-16T11:15:20.350656", "MEAN_MOTION": 14.58756379, "ECCENTRICITY": 0.0068134, "INCLINATION": 73.8518, "RA_OF_ASC_NODE": 0.095, "ARG_OF_PERICENTER": 210.8163, "MEAN_ANOMALY": 300.2782, "EPHEMERIS_TYPE": 0, "CLASSIFICATION_TYPE": "U", "NORAD_CAT_ID": 35032, "ELEMENT_SET_NO": 999, "REV_AT_EPOCH": 87728, "BSTAR": 0.00060711838, "MEAN_MOTION_DOT": 2.896e-05, "MEAN_MOTION_DDOT": 0}, "tle": {"line1": "1 35032U 93036AGV 25350.46898554  .00002896  00000+0  60712-3 0  9991", "line2": "2 35032  73.8518   0.0950 0068134 210.8163 300.2782 14.58756379877283"}}, "geometry": {"type": "Point", "coordinates": [179.44982610590506, -7.794557769094182]}}, {"type": "Feature", "properties": {"norad_id": 35033, "name": "COSMOS 2251 DEB", "group": "cosmos-2251-debris", "lat": 60.19561061388931, "lon": -163.28635448189374, "alt_km": 725.3455240572166, "timestamp": "2025-12-17T23:38:07.249315+00:00", "meta": {"OBJECT_NAME": "COSMOS 2251 DEB", "OBJECT_ID": "1993-036AGW", "EPOCH": "2025-12-17T05:08:11.093856", "MEAN_MOTION": 14.50951122, "ECCENTRICITY": 0.00144476, "INCLINATION": 74.0249, "RA_OF_ASC_NODE": 168.1568, "ARG_OF_PERICENTER": 274.779, "MEAN_ANOMALY": 85.1721, "EPHEMERIS_TYPE": 0, "CLASSIFICATION_TYPE": "U", "NORAD_CAT_ID": 35033, "ELEMENT_SET_NO": 999, "REV_AT_EPOCH": 65992, "BSTAR": 0.0004947363, "MEAN_MOTION_DOT": 1.93e-05, "MEAN_MOTION_DDOT": 0}, "tle": {"line1": "1 35033U 93036AGW 25351.21401729  .00001930  00000+0  49474-3 0  9990", "line2": "2 35033  74.0249 168.1568 0014447 274.7790  85.1721 14.50951122659928"}}, "geometry": {"type": "Point", "coordinates": [-163.28635448189374, 60.19561061388931]}}, {"type": "Feature", "properties": {"norad_id": 35038, "name": "COSMOS 2251 DEB", "group": "cosmos-2251-debris", "lat": -72.57073634471767, "lon": -81.67698524557025, "alt_km": 845.8066674648735, "timestamp": "2025-12-17T23:38:07.249326+00:00", "meta": {"OBJECT_NAME": "COSMOS 2251 DEB", "OBJECT_ID": "1993-036AHB", "EPOCH": "2025-12-16T02:43:57.942048", "MEAN_MOTION": 14.25166694, "ECCENTRICITY": 0.01140711, "INCLINATION": 74.1077, "RA_OF_ASC_NODE": 36.5236, "ARG_OF_PERICENTER": 19.3791, "MEAN_ANOMALY": 9.3469, "EPHEMERIS_TYPE": 0, "CLASSIFICATION_TYPE": "U", "NORAD_CAT_ID": 35038, "ELEMENT_SET_NO": 999, "REV_AT_EPOCH": 85617, "BSTAR": 0.00096319549, "MEAN_MOTION_DOT": 2.397e-05, "MEAN_MOTION_DDOT": 0}, "tle": {"line1": "1 35038U 93036AHB 25350.11386507  .00002397  00000+0  96320-3 0  9999", "line2": "2 35038  74.1077  36.5236 0114071  19.3791   9.3469 14.25166694856178"}}, "geometry": {"type": "Point", "coordinates": [-81.67698524557025, -72.57073634471767]}}, {"type": "Feature", "properties": {"norad_id": 35043, "name": "COSMOS 2251 DEB", "group": "cosmos-2251-debris", "lat": 4.068292580712609, "lon": 36.410702398322556, "alt_km": 674.3661668240347, "timestamp": "2025-12-17T23:38:07.249335+00:00", "meta": {"OBJECT_NAME": "COSMOS 2251 DEB", "OBJECT_ID": "1993-036AHG", "EPOCH": "2025-12-15T19:36:09.229536", "MEAN_MOTION": 14.77121808, "ECCENTRICITY": 0.00962449, "INCLINATION": 73.9502, "RA_OF_ASC_NODE": 39.5099, "ARG_OF_PERICENTER": 248.3461, "MEAN_ANOMALY": 110.7443, "EPHEMERIS_TYPE": 0, "CLASSIFICATION_TYPE": "U", "NORAD_CAT_ID": 35043, "ELEMENT_SET_NO": 999, "REV_AT_EPOCH": 67464, "BSTAR": 0.0021635766, "MEAN_MOTION_DOT": 0.00016517, "MEAN_MOTION_DDOT": 0}, "tle": {"line1": "1 35043U 93036AHG 25349.81677349  .00016517  00000+0  21636-2 0  9993", "line2": "2 35043  73.9502  39.5099 0096244 248.3461 110.7443 14.77121808674647"}}, "geometry": {"type": "Point", "coordinates": [36.410702398322556, 4.068292580712609]}}]}